IRIDIUM 159             
1 43578U 18061K   25114.38581636  .00000134  00000+0  40809-4 0  9998
2 43578  86.3988 231.6606 0002315  91.0616 269.0845 14.34217747353352
IRIDIUM 180             
1 43922U 19002A   25114.66438612  .00000061  00000+0  14573-4 0  9991
2 43922  86.4010 168.5302 0002226  91.2643 268.8808 14.34218068329004
IRIDIUM 176             
1 43923U 19002B   25114.74979348  .00001611  00000+0  25160-3 0  9992
2 43923  86.6137 168.4929 0001869  88.4561 271.6870 14.72259449337684
IRIDIUM 168             
1 43924U 19002C   25114.58827344  .00000164  00000+0  51660-4 0  9990
2 43924  86.4013 168.6277 0002348  94.9074 265.2390 14.34218503328970
IRIDIUM 173             
1 43925U 19002D   25114.71512659  .00000140  00000+0  42898-4 0  9993
2 43925  86.4010 168.4809 0002098  92.0109 268.1328 14.34218406328972
IRIDIUM 169             
1 43926U 19002E   25114.80472520  .00000489  00000+0  15337-3 0  9999
2 43926  86.4288 200.0073 0001078 131.4389 228.6902 14.38608595330070
IRIDIUM 172             
1 43927U 19002F   25114.56924782  .00000129  00000+0  39029-4 0  9991
2 43927  86.4012 168.5481 0002438  88.4891 271.6584 14.34217965328969
IRIDIUM 175             
1 43928U 19002G   25114.47277847  .00000714  00000+0  10933-3 0  9997
2 43928  86.1475 124.1916 0002368 114.4581 245.6883 14.72245854337636
